STARLINK-3051           
1 49157U 21082AD  24193.74182369  .00002526  00000+0  21949-3 0  9990
2 49157  70.0001   2.2552 0003177 263.8132  96.2665 14.98323007156806
STARLINK-3083           
1 49158U 21082AE  24193.87091288  .00011686  00000+0  65180-3 0  9996
2 49158  69.9972 349.8914 0002259 227.3671 132.7306 15.13742957157127
STARLINK-3056           
1 49159U 21082AF  24193.90895766 -.00000129  00000+0 -30121-5 0  9995
2 49159  70.0008  21.8441 0002817 265.6992  94.3845 14.98341202156337
STARLINK-3095           
1 49160U 21082AG  24193.76291585  .00000694  00000+0  65973-4 0  9997
2 49160  70.0003  22.1952 0003030 274.6567  85.4246 14.98330733156288
STARLINK-3080           
1 49161U 21082AH  24193.96736653  .00000735  00000+0  69376-4 0  9997
2 49161  70.0006  21.6775 0002808 264.7660  95.3178 14.98333757156323
STARLINK-3082           
1 49162U 21082AJ  24193.76308315  .00000328  00000+0  35290-4 0  9992
2 49162  70.0005  22.2238 0002981 271.9316  88.1502 14.98340937156378
STARLINK-3088           
1 49163U 21082AK  24194.20079784  .00000463  00000+0  46623-4 0  9990
2 49163  70.0004   1.1055 0003144 264.8135  95.2666 14.98330016156943
STARLINK-3106           
1 49164U 21082AL  24194.19245625 -.00000349  00000+0 -21459-4 0  9993
2 49164  70.0006   1.1327 0003132 266.9927  93.0874 14.98328821156945
STARLINK-3052           
1 49165U 21082AM  24193.75874431  .00000707  00000+0  67009-4 0  9995
2 49165  70.0006  22.2381 0002977 273.0512  87.0307 14.98334455156411
STARLINK-3089           
1 49166U 21082AN  24193.79606027  .00001450  00000+0  12923-3 0  9994
2 49166  70.0011   2.1303 0002845 267.4180  92.6654 14.98336248156915
STARLINK-3054           
1 49167U 21082AP  24193.68361850  .00004512  00000+0  38557-3 0  9998
2 49167  69.9995  22.4045 0003105 269.8869  90.1934 14.98338243156407
STARLINK-3101           
1 49168U 21082AQ  24193.57909410  .00000341  00000+0  36336-4 0  9997
2 49168  70.0004   2.6626 0003063 269.9531  90.1276 14.98332297156881
STARLINK-3046           
1 49169U 21082AR  24194.18827385 -.00003276  00000+0 -26674-3 0  9991
2 49169  70.0001   1.1474 0003346 263.7017  96.3761 14.98354521156981
STARLINK-3074           
1 49170U 21082AS  24193.79212609  .00000490  00000+0  48893-4 0  9997
2 49170  70.0002  22.1364 0003036 269.0323  91.0488 14.98330848155220
STARLINK-3107           
1 49171U 21082AT  24193.81298689  .00000730  00000+0  68993-4 0  9993
2 49171  70.0000  22.0942 0003018 268.7209  91.3605 14.98335414156385
STARLINK-3091           
1 49172U 21082AU  24193.75434452  .00004561  00000+0  38996-3 0  9992
2 49172  70.0005   2.2252 0002896 271.6477  88.4351 14.98316128155709
STARLINK-3045           
1 49173U 21082AV  24194.17576343 -.00000006  00000+0  72759-5 0  9994
2 49173  70.0014   1.1634 0002758 267.2316  92.8527 14.98330479155778
STARLINK-3047           
1 49174U 21082AW  24193.76316790  .00009548  00000+0  66355-3 0  9999
2 49174  69.9983 356.8381 0003373 263.9973  96.0806 15.05779159157012
STARLINK-3087           
1 49175U 21082AX  24194.20497053  .00000161  00000+0  21255-4 0  9995
2 49175  70.0005   1.1031 0003096 271.6296  88.4509 14.98332605155777
STARLINK-3069           
1 49176U 21082AY  24194.12546023  .00000232  00000+0  27212-4 0  9997
2 49176  70.0016 341.2967 0002999 269.4761  90.6054 14.98331516156253
STARLINK-3103           
1 49177U 21082AZ  24193.74576242  .00000773  00000+0  72553-4 0  9999
2 49177  70.0009 342.2639 0003153 270.0935  89.9862 14.98334482157396
STARLINK-3086           
1 49178U 21082BA  24193.97154043  .00001033  00000+0  94321-4 0  9993
2 49178  70.0005  21.6734 0002940 267.8337  92.2485 14.98332026156401
STARLINK-3043           
1 49179U 21082BB  24194.13380335  .00000080  00000+0  14478-4 0  9994
2 49179  70.0012 341.2678 0003177 272.3119  87.7676 14.98333897156251
STARLINK-3050           
1 49180U 21082BC  24194.18410755  .00000006  00000+0  82785-5 0  9996
2 49180  69.9999   1.1455 0003234 267.5142  92.5646 14.98332799156942
STARLINK-3059           
1 49181U 21082BD  24194.22189181  .00000738  00000+0  69625-4 0  9997
2 49181  70.0005  21.0576 0003061 272.7194  87.3615 14.98332940156454
STARLINK-3151           
1 49408U 21104A   24193.68247387  .00001137  00000+0  89493-4 0  9995
2 49408  53.2173  69.6170 0001320 106.2789 253.8349 15.08838600147146
STARLINK-3075           
1 49409U 21104B   24194.02743463  .00000254  00000+0  34047-4 0  9995
2 49409  53.2175  68.0470 0001455  80.6454 279.4703 15.08834193148296
STARLINK-3147           
1 49410U 21104C   24192.89495168  .00000107  00000+0  24810-4 0  9990
2 49410  53.2198  73.1397 0001875  55.7230 304.3939 15.08838500148115
STARLINK-3162           
1 49411U 21104D   24193.88115247  .00005306  00000+0  35111-3 0  9999
2 49411  53.2147  58.7042 0001519  81.1437 278.9727 15.08849607147315
STARLINK-3144           
1 49412U 21104E   24193.62631535  .00001384  00000+0  10503-3 0  9995
2 49412  53.2193  69.8437 0001436  91.8071 268.3086 15.08836136148234
STARLINK-3157           
1 49413U 21104F   24193.01730772  .00000812  00000+0  69082-4 0  9994
2 49413  53.2171  62.5914 0001332  91.3237 268.7908 15.08845710147183
STARLINK-3146           
1 49414U 21104G   24193.68519301  .00000765  00000+0  66151-4 0  9992
2 49414  53.2181  69.5817 0001371  95.9690 264.1459 15.08837506147141
STARLINK-3159           
1 49415U 21104H   24194.00627088  .00002353  00000+0  16582-3 0  9999
2 49415  53.2170  58.1421 0001328  84.1024 276.0119 15.08846639148411
STARLINK-3133           
1 49416U 21104J   24193.67783130  .00000953  00000+0  78001-4 0  9992
2 49416  53.2187  69.6146 0001611  99.8137 260.3037 15.08836297147147
STARLINK-3154           
1 49417U 21104K   24193.90319143  .00004051  00000+0  27245-3 0  9994
2 49417  53.2192  58.2556 0001787  92.2994 267.8203 15.08846208148427
STARLINK-3111           
1 49418U 21104L   24193.67415595  .00002784  00000+0  19294-3 0  9993
2 49418  53.2172  69.6320 0001632  89.7814 270.3365 15.08837371148241
STARLINK-3120           
1 49419U 21104M   24194.06054916  .00001617  00000+0  11965-3 0  9995
2 49419  53.2169  67.8942 0001435  87.3140 272.8016 15.08845847148286
STARLINK-3110           
1 49420U 21104N   24194.06791275  .00003393  00000+0  23115-3 0  9996
2 49420  53.2166  67.8630 0001484 111.4336 248.6815 15.08844611148308
STARLINK-3112           
1 49421U 21104P   24193.10740949  .00003563  00000+0  24180-3 0  9995
2 49421  53.2174  71.9841 0001400  83.2293 276.8858 15.08844389148148
STARLINK-3161           
1 49422U 21104Q   24193.03482828  .00000895  00000+0  74326-4 0  9990
2 49422  53.2191  72.8281 0001358 100.4021 259.7124 15.08838122148143
STARLINK-3149           
1 49423U 21104R   24194.06426011  .00009950  00000+0  64241-3 0  9992
2 49423  53.2166  68.0734 0001812  85.6210 274.4989 15.08838452148289
STARLINK-3135           
1 49424U 21104S   24194.05687071  .00004087  00000+0  27461-3 0  9996
2 49424  53.2159  67.9134 0001466  88.9933 271.1227 15.08851925148286
STARLINK-3139           
1 49425U 21104T   24194.04310601  .00001637  00000+0  12091-3 0  9999
2 49425  53.2168  67.9861 0001405  90.8848 269.2305 15.08844694148284
STARLINK-3114           
1 49426U 21104U   24193.65207296  .00001813  00000+0  13195-3 0  9993
2 49426  53.2164  69.7330 0001899  80.2259 279.8947 15.08848508147138
STARLINK-3131           
1 49427U 21104V   24194.03943017  .00002094  00000+0  14960-3 0  9998
2 49427  53.2167  68.0028 0001365  85.8208 274.2941 15.08846834148304
STARLINK-3121           
1 49428U 21104W   24193.62262105  .00002136  00000+0  15223-3 0  9995
2 49428  53.2171  69.7763 0001198  86.2431 273.8698 15.08841405148214
STARLINK-3138           
1 49430U 21104Y   24194.06153799  .00003063  00000+0  21042-3 0  9991
2 49430  53.2162  68.1698 0001287  94.6880 265.4260 15.08847213148289
STARLINK-3153           
1 49431U 21104Z   24193.68154396 -.00000014  00000+0  17240-4 0  9993
2 49431  53.2184  69.7741 0001585 133.3420 226.7705 15.08836705147144
STARLINK-3158           
1 49432U 21104AA  24193.99986901  .00002924  00000+0  20170-3 0  9999
2 49432  53.2169  58.1725 0001539  90.9774 269.1395 15.08846755148414
STARLINK-3079           
1 49433U 21104AB  24193.99983196  .00002852  00000+0  19715-3 0  9996
2 49433  53.2186  48.1681 0001454 101.6462 258.4694 15.08846631148566
STARLINK-3134           
1 49434U 21104AC  24193.64841287  .00002794  00000+0  19356-3 0  9999
2 49434  53.2158  69.9033 0001389  86.7965 273.3186 15.08841389148226
STARLINK-3117           
1 49435U 21104AD  24193.87198663  .00001554  00000+0  11571-3 0  9992
2 49435  53.2181  48.7425 0001481  92.8372 267.2790 15.08844793148546
STARLINK-3049           
1 49436U 21104AE  24194.00350658  .00001066  00000+0  85024-4 0  9996
2 49436  53.2182  48.1515 0001485  97.1199 262.9962 15.08846866148547
STARLINK-3130           
1 49437U 21104AF  24193.86367128  .00003320  00000+0  22651-3 0  9991
2 49437  53.2173  48.7849 0001203  81.9740 278.1389 15.08846560147457
STARLINK-3044           
1 49438U 21104AG  24193.85358077  .00004161  00000+0  27930-3 0  9993
2 49438  53.2175  48.7576 0001361  82.8530 277.2617 15.08847308147454
STARLINK-3105           
1 49440U 21104AJ  24193.85631273  .00007849  00000+0  51056-3 0  9990
2 49440  53.2168  48.8158 0001233  82.8931 277.2201 15.08849524147450
STARLINK-3128           
1 49441U 21104AK  24193.90415139  .00000404  00000+0  43444-4 0  9991
2 49441  53.2178  48.5991 0001239  92.7100 267.4034 15.08844895147460
STARLINK-3098           
1 49442U 21104AL  24193.85263582  .00003796  00000+0  25644-3 0  9997
2 49442  53.2166  48.8333 0001582  84.3808 275.7365 15.08839861147459
STARLINK-3136           
1 49443U 21104AM  24193.90047232  .00000615  00000+0  56707-4 0  9998
2 49443  53.2191  48.6175 0001699 116.4641 243.6526 15.08840644147466
